COSMOS 2433 (720)       
1 32275U 07052A   22198.62378887 -.00000066  00000+0  00000+0 0  9995
2 32275  66.0825   3.6688 0001327 171.8157 194.6568  2.13104195114610
COSMOS 2432 (719)       
1 32276U 07052B   22198.67862199 -.00000066  00000+0  00000+0 0  9995
2 32276  66.0956   3.7684 0008476 342.2214  14.5708  2.13103432114601
COSMOS 2434 (721)       
1 32393U 07065A   22199.27132825  .00000029  00000+0  00000+0 0  9990
2 32393  64.3784 240.3742 0001103 128.9436 263.9795  2.13103238113339
COSMOS 2436 (723)       
1 32395U 07065C   22199.16973314  .00000029  00000+0  00000+0 0  9996
2 32395  64.3869 240.4344 0014516 353.3239  97.5265  2.13103089113260
COSMOS 2456 (730)       
1 36111U 09070A   22199.23752391  .00000002  00000+0  00000+0 0  9993
2 36111  64.3599 119.9967 0005015 309.3231 222.8101  2.13099390 97990
COSMOS 2457 (733)       
1 36112U 09070B   22198.52360361  .00000005  00000+0  00000+0 0  9990
2 36112  64.3430 119.8972 0003994 180.0268 291.9484  2.13101623 97981
COSMOS 2461 (735)       
1 36401U 10007B   22198.33174654 -.00000067  00000+0  00000+0 0  9999
2 36401  65.9704   2.5131 0020360  13.8957 345.9246  2.13103761 96320
COSMOS 2460 (732)       
1 36402U 10007C   22198.87569610 -.00000067  00000+0  00000+0 0  9999
2 36402  65.9546   2.4433 0002723  89.8140 276.0161  2.13106441 96349
COSMOS 2464 (736)       
1 37139U 10041C   22198.40657595  .00000031  00000+0  00000+0 0  9994
2 37139  63.9785 239.4652 0027961   7.1799 300.3303  2.13100841 92386
COSMOS 2476 (744)       
1 37867U 11064A   22199.25940780  .00000004  00000+0  00000+0 0  9993
2 37867  64.6481 121.3646 0022188 239.8326 214.8609  2.13101962 83342
COSMOS 2477 (745)       
1 37868U 11064B   22198.66711153  .00000007  00000+0  00000+0 0  9991
2 37868  64.6562 121.4499 0019483 240.9293 297.4705  2.13101802 83280
COSMOS 2475 (743)       
1 37869U 11064C   22197.32479771  .00000009  00000+0  00000+0 0  9993
2 37869  64.6634 121.5041 0024133 257.8223 288.8495  2.13102172 83262
COSMOS 2485 (747)       
1 39155U 13019A   22198.35632892  .00000009  00000+0  00000+0 0  9994
2 39155  64.8116 121.8300 0022647 235.4261 290.8479  2.13102071 71790
COSMOS 2492 (754)       
1 39620U 14012A   22199.25205635 -.00000067  00000+0  00000+0 0  9991
2 39620  65.8416   2.1096 0011397 333.0127 194.8848  2.13103263 64766
COSMOS 2500 (755)       
1 40001U 14032A   22198.74527214 -.00000067  00000+0  00000+0 0  9991
2 40001  65.7793   1.9839 0005897 178.4434 179.2503  2.13102411 62969
COSMOS 2501 (702K)      
1 40315U 14075A   22197.64184473  .00000036  00000+0  00000+0 0  9995
2 40315  63.6855 240.1489 0019176 210.7943 188.5314  2.13101581 59350
COSMOS 2514 (751)       
1 41330U 16008A   22198.50855039 -.00000068  00000+0  00000+0 0  9996
2 41330  65.5804   1.6769 0009643 198.1697 161.8020  2.13102705 50131
COSMOS 2516 (753)       
1 41554U 16032A   22198.30136032  .00000031  00000+0  00000+0 0  9993
2 41554  63.9119 240.4105 0014873 216.0626 248.3028  2.13106543 47735
COSMOS 2522 (752)       
1 42939U 17055A   22198.43477257  .00000030  00000+0  00000+0 0  9997
2 42939  64.1455 240.8088 0009324 241.8183 181.1922  2.13102034 37492
COSMOS 2527 (756)       
1 43508U 18053A   22198.73565056  .00000008  00000+0  00000+0 0  9992
2 43508  64.9745 121.8243 0008521 238.2020  87.7315  2.13102577 31789
COSMOS 2529 (757)       
1 43687U 18086A   22197.47271806  .00000037  00000+0  00000+0 0  9995
2 43687  64.3605 241.1665 0011062 262.5059  97.9802  2.13102227 28788
COSMOS 2534 (758)       
1 44299U 19030A   22198.76376137  .00000028  00000+0  00000+0 0  9991
2 44299  64.4324 241.0097 0013441 281.9708 123.5182  2.13102100 24451
COSMOS 2544 (759)       
1 44850U 19088A   22198.49077396  .00000009  00000+0  16595+1 0  9998
2 44850  64.9603 121.6834 0013340 262.7419 278.7753  2.13102364 20214
COSMOS 2545 (760)       
1 45358U 20018A   22198.95691140 -.00000069  00000+0  00000+0 0  9997
2 45358  64.9171   2.2446 0006730 238.7126 149.8495  2.13102793 18184
COSMOS 2547 (705K)      
1 46805U 20075A   22198.70585132  .00000030  00000+0  00000+0 0  9991
2 46805  64.6575 240.4462 0008277 244.4498 164.4149  2.13103239 13422
COSMOS 2557 (706K)      
1 52984U 22075A   22197.38890056 -.00000069  00000+0  10000-3 0  9993
2 52984  64.8160   4.5071 0013210  17.5623 342.9727  2.12523611   190
